{
  "type": "FeatureCollection",
  "features": [
    {
      "type": "Feature",
      "properties": {
        "norad_id": 35835,
        "name": "COSMOS 2251 DEB",
        "group": "cosmos-2251-debris",
        "lat": 17.950713810271232,
        "lon": -80.64933694502764,
        "alt_km": 783.1233757379823,
        "timestamp": "2025-12-09T09:46:48.042511+00:00",
        "meta_object_name": "COSMOS 2251 DEB",
        "meta_object_id": "1993-036ATH",
        "meta_epoch": "2025-12-08T02:26:31.163712",
        "meta_mean_motion": 13.82845446,
        "meta_eccentricity": 0.0289856,
        "meta_inclination": 74.0637,
        "meta_ra_of_asc_node": 276.2339,
        "meta_arg_of_pericenter": 58.9026,
        "meta_mean_anomaly": 304.0195,
        "meta_ephemeris_type": 0,
        "meta_classification_type": "U",
        "meta_norad_cat_id": 35835,
        "meta_element_set_no": 999,
        "meta_rev_at_epoch": 61635,
        "meta_bstar": 0.0020246404,
        "meta_mean_motion_dot": 3.026e-05,
        "meta_mean_motion_ddot": 0,
        "tle_line1": "1 35835U 93036ATH 25342.10174958  .00003026  00000+0  20246-2 0  9992",
        "tle_line2": "2 35835  74.0637 276.2339 0289856  58.9026 304.0195 13.82845446616351"
      },
      "geometry": {
        "type": "Point",
        "coordinates": [
          -80.64933694502764,
          17.950713810271232
        ]
      }
    },
    {
      "type": "Feature",
      "properties": {
        "norad_id": 35836,
        "name": "COSMOS 2251 DEB",
        "group": "cosmos-2251-debris",
        "lat": -72.86111411563336,
        "lon": 67.61734114026804,
        "alt_km": 649.6869691163365,
        "timestamp": "2025-12-09T09:46:48.042521+00:00",
        "meta_object_name": "COSMOS 2251 DEB",
        "meta_object_id": "1993-036ATJ",
        "meta_epoch": "2025-12-08T21:09:26.726112",
        "meta_mean_motion": 14.70831317,
        "meta_eccentricity": 0.0024584,
        "meta_inclination": 74.031,
        "meta_ra_of_asc_node": 180.4275,
        "meta_arg_of_pericenter": 239.4807,
        "meta_mean_anomaly": 120.3938,
        "meta_ephemeris_type": 0,
        "meta_classification_type": "U",
        "meta_norad_cat_id": 35836,
        "meta_element_set_no": 999,
        "meta_rev_at_epoch": 63463,
        "meta_bstar": 0.0019954,
        "meta_mean_motion_dot": 0.00012243,
        "meta_mean_motion_ddot": 0,
        "tle_line1": "1 35836U 93036ATJ 25342.88155933  .00012243  00000+0  19954-2 0  9995",
        "tle_line2": "2 35836  74.0310 180.4275 0024584 239.4807 120.3938 14.70831317634638"
      },
      "geometry": {
        "type": "Point",
        "coordinates": [
          67.61734114026804,
          -72.86111411563336
        ]
      }
    },
    {
      "type": "Feature",
      "properties": {
        "norad_id": 35837,
        "name": "COSMOS 2251 DEB",
        "group": "cosmos-2251-debris",
        "lat": 29.87078907367965,
        "lon": -137.16919007606623,
        "alt_km": 1079.7429151210417,
        "timestamp": "2025-12-09T09:46:48.042532+00:00",
        "meta_object_name": "COSMOS 2251 DEB",
        "meta_object_id": "1993-036ATK",
        "meta_epoch": "2025-12-08T09:49:11.073216",
        "meta_mean_motion": 13.63427445,
        "meta_eccentricity": 0.04220574,
        "meta_inclination": 73.7213,
        "meta_ra_of_asc_node": 214.8301,
        "meta_arg_of_pericenter": 136.2999,
        "meta_mean_anomaly": 41.3632,
        "meta_ephemeris_type": 0,
        "meta_classification_type": "U",
        "meta_norad_cat_id": 35837,
        "meta_element_set_no": 999,
        "meta_rev_at_epoch": 57917,
        "meta_bstar": 0.0028682551,
        "meta_mean_motion_dot": 4.116e-05,
        "meta_mean_motion_ddot": 0,
        "tle_line1": "1 35837U 93036ATK 25342.40915594  .00004116  00000+0  28683-2 0  9990",
        "tle_line2": "2 35837  73.7213 214.8301 0422057 136.2999  41.3632 13.63427445579176"
      },
      "geometry": {
        "type": "Point",
        "coordinates": [
          -137.16919007606623,
          29.87078907367965
        ]
      }
    },
    {
      "type": "Feature",
      "properties": {
        "norad_id": 35839,
        "name": "COSMOS 2251 DEB",
        "group": "cosmos-2251-debris",
        "lat": -30.08198898980712,
        "lon": -38.67889130397179,
        "alt_km": 423.4836297108559,
        "timestamp": "2025-12-09T09:46:48.042542+00:00",
        "meta_object_name": "COSMOS 2251 DEB",
        "meta_object_id": "1993-036ATM",
        "meta_epoch": "2025-12-08T23:03:59.947200",
        "meta_mean_motion": 15.49150039,
        "meta_eccentricity": 0.0001318,
        "meta_inclination": 74.2066,
        "meta_ra_of_asc_node": 331.7255,
        "meta_arg_of_pericenter": 23.9836,
        "meta_mean_anomaly": 336.1438,
        "meta_ephemeris_type": 0,
        "meta_classification_type": "U",
        "meta_norad_cat_id": 35839,
        "meta_element_set_no": 999,
        "meta_rev_at_epoch": 88509,
        "meta_bstar": 0.0058901,
        "meta_mean_motion_dot": 0.00334695,
        "meta_mean_motion_ddot": 0,
        "tle_line1": "1 35839U 93036ATM 25342.96111050  .00334695  00000+0  58901-2 0  9992",
        "tle_line2": "2 35839  74.2066 331.7255 0001318  23.9836 336.1438 15.49150039885090"
      },
      "geometry": {
        "type": "Point",
        "coordinates": [
          -38.67889130397179,
          -30.08198898980712
        ]
      }
    },
    {
      "type": "Feature",
      "properties": {
        "norad_id": 35840,
        "name": "COSMOS 2251 DEB",
        "group": "cosmos-2251-debris",
        "lat": 26.45036461794059,
        "lon": 172.59973102712758,
        "alt_km": 700.4249269876418,
        "timestamp": "2025-12-09T09:46:48.042553+00:00",
        "meta_object_name": "COSMOS 2251 DEB",
        "meta_object_id": "1993-036ATN",
        "meta_epoch": "2025-12-08T18:37:28.284384",
        "meta_mean_motion": 14.37765404,
        "meta_eccentricity": 0.01163254,
        "meta_inclination": 73.9303,
        "meta_ra_of_asc_node": 165.5248,
        "meta_arg_of_pericenter": 68.9805,
        "meta_mean_anomaly": 292.3744,
        "meta_ephemeris_type": 0,
        "meta_classification_type": "U",
        "meta_norad_cat_id": 35840,
        "meta_element_set_no": 999,
        "meta_rev_at_epoch": 85234,
        "meta_bstar": 0.0024200491,
        "meta_mean_motion_dot": 7.86e-05,
        "meta_mean_motion_ddot": 0,
        "tle_line1": "1 35840U 93036ATN 25342.77602181  .00007860  00000+0  24200-2 0  9999",
        "tle_line2": "2 35840  73.9303 165.5248 0116325  68.9805 292.3744 14.37765404852346"
      },
      "geometry": {
        "type": "Point",
        "coordinates": [
          172.59973102712758,
          26.45036461794059
        ]
      }
    },
    {
      "type": "Feature",
      "properties": {
        "norad_id": 35883,
        "name": "COSMOS 2251 DEB",
        "group": "cosmos-2251-debris",
        "lat": -52.57957041027856,
        "lon": -81.7171614007142,
        "alt_km": 678.2238675084764,
        "timestamp": "2025-12-09T09:46:48.042564+00:00",
        "meta_object_name": "COSMOS 2251 DEB",
        "meta_object_id": "1993-036ATW",
        "meta_epoch": "2025-12-08T12:53:27.979296",
        "meta_mean_motion": 14.5058807,
        "meta_eccentricity": 0.00839123,
        "meta_inclination": 74.0248,
        "meta_ra_of_asc_node": 77.932,
        "meta_arg_of_pericenter": 208.211,
        "meta_mean_anomaly": 163.6192,
        "meta_ephemeris_type": 0,
        "meta_classification_type": "U",
        "meta_norad_cat_id": 35883,
        "meta_element_set_no": 999,
        "meta_rev_at_epoch": 62325,
        "meta_bstar": 0.00065719246,
        "meta_mean_motion_dot": 2.667e-05,
        "meta_mean_motion_ddot": 0,
        "tle_line1": "1 35883U 93036ATW 25342.53712939  .00002667  00000+0  65719-3 0  9994",
        "tle_line2": "2 35883  74.0248  77.9320 0083912 208.2110 163.6192 14.50588070623253"
      },
      "geometry": {
        "type": "Point",
        "coordinates": [
          -81.7171614007142,
          -52.57957041027856
        ]
      }
    },
    {
      "type": "Feature",
      "properties": {
        "norad_id": 35884,
        "name": "COSMOS 2251 DEB",
        "group": "cosmos-2251-debris",
        "lat": -68.84909778442292,
        "lon": -150.0474056694678,
        "alt_km": 858.7374241985226,
        "timestamp": "2025-12-09T09:46:48.042574+00:00",
        "meta_object_name": "COSMOS 2251 DEB",
        "meta_object_id": "1993-036ATX",
        "meta_epoch": "2025-12-06T18:16:42.391200",
        "meta_mean_motion": 14.25605565,
        "meta_eccentricity": 0.01089766,
        "meta_inclination": 73.9907,
        "meta_ra_of_asc_node": 346.8314,
        "meta_arg_of_pericenter": 135.364,
        "meta_mean_anomaly": 225.6347,
        "meta_ephemeris_type": 0,
        "meta_classification_type": "U",
        "meta_norad_cat_id": 35884,
        "meta_element_set_no": 999,
        "meta_rev_at_epoch": 22272,
        "meta_bstar": 0.0019229553,
        "meta_mean_motion_dot": 4.824e-05,
        "meta_mean_motion_ddot": 0,
        "tle_line1": "1 35884U 93036ATX 25340.76160175  .00004824  00000+0  19230-2 0  9990",
        "tle_line2": "2 35884  73.9907 346.8314 0108976 135.3640 225.6347 14.25605565222720"
      },
      "geometry": {
        "type": "Point",
        "coordinates": [
          -150.0474056694678,
          -68.84909778442292
        ]
      }
    }
  ]
}